FLOCK 4G-13             
1 62621U 25009N   26068.70638971  .00053076  00000+0  16695-2 0  9995
2 62621  97.4019 151.0918 0003801 292.7207  67.3633 15.32770015 63700
STARLINK-34906          
1 65896U 25224Q   26068.16749233  .00022883  00000+0  78284-3 0  9990
2 65896  53.1626  13.8184 0000980 109.5738 250.5369 15.30179574 24798
